IRIDIUM 155             
1 43573U 18061E   20324.12618696  .00000093  00000-0  26307-4 0  9992
2 43573  86.4006 187.6000 0002114 101.3311 258.8123 14.34216674121537
IRIDIUM 154             
1 43574U 18061F   20324.38624189  .00000091  00000-0  25487-4 0  9991
2 43574  86.4010 187.5284 0001803  79.6023 280.5376 14.34218041121618
IRIDIUM 163             
1 43575U 18061G   20324.36720859  .00000092  00000-0  25887-4 0  9996
2 43575  86.4007 187.5134 0002482  77.2325 282.9148 14.34218060121582
IRIDIUM 156             
1 43576U 18061H   20324.13253310  .00000094  00000-0  26676-4 0  9994
2 43576  86.4008 187.6162 0002343  89.4940 270.6524 14.34217469121539
IRIDIUM 164             
1 43577U 18061J   20324.11349343  .00000091  00000-0  25470-4 0  9993
2 43577  86.4009 187.6336 0001967  78.9756 281.1661 14.34219834121585
IRIDIUM 159             
1 43578U 18061K   20324.15155981  .00000094  00000-0  26338-4 0  9998
2 43578  86.4007 187.5973 0001894  81.0458 279.0952 14.34218330121559
IRIDIUM 180             
1 43922U 19002A   20324.01149849 -.00000001  00000-0 -73138-5 0  9999
2 43922  86.3946 124.5502 0001876  57.6051 302.5326 14.34216295 97186
IRIDIUM 176             
1 43923U 19002B   20323.98242625  .00000035  00000-0  16912-5 0  9993
2 43923  86.6079 124.5931 0002137  86.6223 273.5239 14.72248367 99669
IRIDIUM 168             
1 43924U 19002C   20324.00514930 -.00000010  00000-0 -10540-4 0  9994
2 43924  86.3948 124.5724 0001712  83.8923 276.2467 14.34216499 97127
IRIDIUM 173             
1 43925U 19002D   20324.41109999 -.00000004  00000-0 -83197-5 0  9997
2 43925  86.3945 124.3743 0001833  85.9614 274.1791 14.34217212 97174
IRIDIUM 169             
1 43926U 19002E   20324.07661661  .00000008  00000-0 -37555-5 0  9999
2 43926  86.4231 156.0974 0004613 181.6982 178.4201 14.38605857 97490
IRIDIUM 172             
1 43927U 19002F   20324.47450920 -.00000002  00000-0 -79109-5 0  9994
2 43927  86.3945 124.3494 0001804  82.7211 277.4190 14.34217270 97189
IRIDIUM 175             
1 43928U 19002G   20323.97624233  .00000031  00000-0  10216-5 0  9993
2 43928  86.6064 124.4570 0003031  90.4598 269.6967 14.72248357 99650
IRIDIUM 171             
1 43929U 19002H   20324.45547610 -.00000002  00000-0 -79127-5 0  9997
2 43929  86.3955 124.4376 0001707  85.4414 274.6977 14.34215835 97175
IRIDIUM 170             
1 43930U 19002J   20323.98861167  .00000037  00000-0  19653-5 0  9996
2 43930  86.6080 124.5973 0002423  84.2052 275.9442 14.72250187 99673
IRIDIUM 167             
1 43931U 19002K   20324.44914233 -.00000005  00000-0 -87196-5 0  9996
2 43931  86.3947 124.3646 0001704  62.9358 297.2011 14.34217068 97172
